[{"OBJECT_NAME":"STARLINK-33707","OBJECT_ID":"2025-065C","EPOCH":"2026-03-13T10:20:33.249696","MEAN_MOTION":15.27615849,"ECCENTRICITY":0.00023314,"INCLINATION":43.005,"RA_OF_ASC_NODE":85.8263,"ARG_OF_PERICENTER":274.8848,"MEAN_ANOMALY":85.1737,"EPHEMERIS_TYPE":0,"CLASSIFICATION_TYPE":"U","NORAD_CAT_ID":63401,"ELEMENT_SET_NO":999,"REV_AT_EPOCH":5341,"BSTAR":0.0007854149,"MEAN_MOTION_DOT":0.00021438,"MEAN_MOTION_DDOT":0},{"OBJECT_NAME":"STARLINK-33668","OBJECT_ID":"2025-065D","EPOCH":"2026-03-13T09:12:17.999424","MEAN_MOTION":15.27597738,"ECCENTRICITY":0.00027549,"INCLINATION":43.0044,"RA_OF_ASC_NODE":86.3195,"ARG_OF_PERICENTER":248.3618,"MEAN_ANOMALY":111.6941,"EPHEMERIS_TYPE":0,"CLASSIFICATION_TYPE":"U","NORAD_CAT_ID":63402,"ELEMENT_SET_NO":999,"REV_AT_EPOCH":5340,"BSTAR":0.00078335775,"MEAN_MOTION_DOT":0.00021369,"MEAN_MOTION_DDOT":0},{"OBJECT_NAME":"STARLINK-33676","OBJECT_ID":"2025-065E","EPOCH":"2026-03-13T10:18:42.541056","MEAN_MOTION":15.27599592,"ECCENTRICITY":0.00016049,"INCLINATION":43.0032,"RA_OF_ASC_NODE":85.8125,"ARG_OF_PERICENTER":278.4201,"MEAN_ANOMALY":81.6468,"EPHEMERIS_TYPE":0,"CLASSIFICATION_TYPE":"U","NORAD_CAT_ID":63403,"ELEMENT_SET_NO":999,"REV_AT_EPOCH":5341,"BSTAR":0.00079130678,"MEAN_MOTION_DOT":0.0002159,"MEAN_MOTION_DDOT":0},{"OBJECT_NAME":"STARLINK-33711","OBJECT_ID":"2025-065F","EPOCH":"2026-03-13T09:47:15.010368","MEAN_MOTION":15.27594897,"ECCENTRICITY":0.00018561,"INCLINATION":43.0038,"RA_OF_ASC_NODE":85.6516,"ARG_OF_PERICENTER":275.0485,"MEAN_ANOMALY":85.0155,"EPHEMERIS_TYPE":0,"CLASSIFICATION_TYPE":"U","NORAD_CAT_ID":63404,"ELEMENT_SET_NO":999,"REV_AT_EPOCH":5341,"BSTAR":0.00074793349,"MEAN_MOTION_DOT":0.00020386,"MEAN_MOTION_DDOT":0},{"OBJECT_NAME":"STARLINK-33708","OBJECT_ID":"2025-065G","EPOCH":"2026-03-13T10:24:15.331392","MEAN_MOTION":15.27600213,"ECCENTRICITY":0.00016919,"INCLINATION":43.0027,"RA_OF_ASC_NODE":85.8357,"ARG_OF_PERICENTER":264.1283,"MEAN_ANOMALY":95.9376,"EPHEMERIS_TYPE":0,"CLASSIFICATION_TYPE":"U","NORAD_CAT_ID":63405,"ELEMENT_SET_NO":999,"REV_AT_EPOCH":5341,"BSTAR":0.00079581673,"MEAN_MOTION_DOT":0.00021715,"MEAN_MOTION_DDOT":0},{"OBJECT_NAME":"STARLINK-33690","OBJECT_ID":"2025-065H","EPOCH":"2026-03-13T01:49:46.409376","MEAN_MOTION":15.27600003,"ECCENTRICITY":8.664e-5,"INCLINATION":43.0004,"RA_OF_ASC_NODE":83.9958,"ARG_OF_PERICENTER":211.7279,"MEAN_ANOMALY":148.3521,"EPHEMERIS_TYPE":0,"CLASSIFICATION_TYPE":"U","NORAD_CAT_ID":63406,"ELEMENT_SET_NO":999,"REV_AT_EPOCH":5340,"BSTAR":0.00084254605,"MEAN_MOTION_DOT":0.00023009,"MEAN_MOTION_DDOT":0},{"OBJECT_NAME":"STARLINK-33694","OBJECT_ID":"2025-065J","EPOCH":"2026-03-13T10:13:08.157504","MEAN_MOTION":15.27627515,"ECCENTRICITY":0.00012481,"INCLINATION":42.9951,"RA_OF_ASC_NODE":85.7751,"ARG_OF_PERICENTER":76.9719,"MEAN_ANOMALY":283.1272,"EPHEMERIS_TYPE":0,"CLASSIFICATION_TYPE":"U","NORAD_CAT_ID":63407,"ELEMENT_SET_NO":999,"REV_AT_EPOCH":5341,"BSTAR":0.0012967846,"MEAN_MOTION_DOT":0.00035647,"MEAN_MOTION_DDOT":0},{"OBJECT_NAME":"STARLINK-33692","OBJECT_ID":"2025-065K","EPOCH":"2026-03-13T09:41:13.016832","MEAN_MOTION":15.27615415,"ECCENTRICITY":0.00015193,"INCLINATION":43.0012,"RA_OF_ASC_NODE":89.9248,"ARG_OF_PERICENTER":256.8487,"MEAN_ANOMALY":103.2195,"EPHEMERIS_TYPE":0,"CLASSIFICATION_TYPE":"U","NORAD_CAT_ID":63408,"ELEMENT_SET_NO":999,"REV_AT_EPOCH":5336,"BSTAR":0.00090751391,"MEAN_MOTION_DOT":0.00024822,"MEAN_MOTION_DDOT":0},{"OBJECT_NAME":"STARLINK-33693","OBJECT_ID":"2025-065L","EPOCH":"2026-03-13T10:39:05.209920","MEAN_MOTION":15.27592361,"ECCENTRICITY":0.00014709,"INCLINATION":43.0011,"RA_OF_ASC_NODE":85.9087,"ARG_OF_PERICENTER":280.1405,"MEAN_ANOMALY":79.9281,"EPHEMERIS_TYPE":0,"CLASSIFICATION_TYPE":"U","NORAD_CAT_ID":63409,"ELEMENT_SET_NO":999,"REV_AT_EPOCH":5341,"BSTAR":0.00076363933,"MEAN_MOTION_DOT":0.00020819,"MEAN_MOTION_DDOT":0},{"OBJECT_NAME":"STARLINK-33677","OBJECT_ID":"2025-065M","EPOCH":"2026-03-13T10:27:57.607488","MEAN_MOTION":15.2759069,"ECCENTRICITY":0.0001418,"INCLINATION":43.0022,"RA_OF_ASC_NODE":85.8491,"ARG_OF_PERICENTER":265.1353,"MEAN_ANOMALY":94.9337,"EPHEMERIS_TYPE":0,"CLASSIFICATION_TYPE":"U","NORAD_CAT_ID":63410,"ELEMENT_SET_NO":999,"REV_AT_EPOCH":5341,"BSTAR":0.00054547424,"MEAN_MOTION_DOT":0.00014783,"MEAN_MOTION_DDOT":0},{"OBJECT_NAME":"STARLINK-33647","OBJECT_ID":"2025-065N","EPOCH":"2026-03-13T10:02:43.374912","MEAN_MOTION":15.27592726,"ECCENTRICITY":0.00014521,"INCLINATION":43.001,"RA_OF_ASC_NODE":93.5113,"ARG_OF_PERICENTER":250.5391,"MEAN_ANOMALY":109.5304,"EPHEMERIS_TYPE":0,"CLASSIFICATION_TYPE":"U","NORAD_CAT_ID":63411,"ELEMENT_SET_NO":999,"REV_AT_EPOCH":5332,"BSTAR":0.00069940416,"MEAN_MOTION_DOT":0.00019041,"MEAN_MOTION_DDOT":0},{"OBJECT_NAME":"STARLINK-33645","OBJECT_ID":"2025-065P","EPOCH":"2026-03-13T10:16:08.462208","MEAN_MOTION":15.27599515,"ECCENTRICITY":0.00017815,"INCLINATION":43.0046,"RA_OF_ASC_NODE":89.1815,"ARG_OF_PERICENTER":277.5817,"MEAN_ANOMALY":82.4832,"EPHEMERIS_TYPE":0,"CLASSIFICATION_TYPE":"U","NORAD_CAT_ID":63412,"ELEMENT_SET_NO":999,"REV_AT_EPOCH":5337,"BSTAR":0.0007754038,"MEAN_MOTION_DOT":0.00021149,"MEAN_MOTION_DDOT":0},{"OBJECT_NAME":"STARLINK-33670","OBJECT_ID":"2025-065Q","EPOCH":"2026-03-13T02:31:37.196832","MEAN_MOTION":15.27597008,"ECCENTRICITY":0.00011999,"INCLINATION":43.0008,"RA_OF_ASC_NODE":87.6335,"ARG_OF_PERICENTER":243.755,"MEAN_ANOMALY":116.3179,"EPHEMERIS_TYPE":0,"CLASSIFICATION_TYPE":"U","NORAD_CAT_ID":63413,"ELEMENT_SET_NO":999,"REV_AT_EPOCH":5336,"BSTAR":0.0010904188,"MEAN_MOTION_DOT":0.00029881,"MEAN_MOTION_DDOT":0},{"OBJECT_NAME":"STARLINK-33644","OBJECT_ID":"2025-065R","EPOCH":"2026-03-13T09:54:51.023520","MEAN_MOTION":15.27594071,"ECCENTRICITY":0.0002441,"INCLINATION":43.007,"RA_OF_ASC_NODE":86.4994,"ARG_OF_PERICENTER":283.8864,"MEAN_ANOMALY":76.1716,"EPHEMERIS_TYPE":0,"CLASSIFICATION_TYPE":"U","NORAD_CAT_ID":63414,"ELEMENT_SET_NO":999,"REV_AT_EPOCH":5340,"BSTAR":0.00078571088,"MEAN_MOTION_DOT":0.00021432,"MEAN_MOTION_DDOT":0},{"OBJECT_NAME":"STARLINK-33664","OBJECT_ID":"2025-065S","EPOCH":"2026-03-13T07:25:11.046432","MEAN_MOTION":15.27605336,"ECCENTRICITY":0.0001787,"INCLINATION":43.0016,"RA_OF_ASC_NODE":86.5753,"ARG_OF_PERICENTER":259.6937,"MEAN_ANOMALY":100.3713,"EPHEMERIS_TYPE":0,"CLASSIFICATION_TYPE":"U","NORAD_CAT_ID":63415,"ELEMENT_SET_NO":999,"REV_AT_EPOCH":5339,"BSTAR":0.0010833503,"MEAN_MOTION_DOT":0.00029693,"MEAN_MOTION_DDOT":0},{"OBJECT_NAME":"STARLINK-33649","OBJECT_ID":"2025-065T","EPOCH":"2026-03-13T10:14:57.593472","MEAN_MOTION":15.2758465,"ECCENTRICITY":0.00024765,"INCLINATION":43.0051,"RA_OF_ASC_NODE":85.7316,"ARG_OF_PERICENTER":293.8752,"MEAN_ANOMALY":66.184,"EPHEMERIS_TYPE":0,"CLASSIFICATION_TYPE":"U","NORAD_CAT_ID":63416,"ELEMENT_SET_NO":999,"REV_AT_EPOCH":5341,"BSTAR":0.00081380105,"MEAN_MOTION_DOT":0.00022203,"MEAN_MOTION_DDOT":0}]
