STARLINK-33707          
1 63401U 25065C   26072.43094039  .00021438  00000+0  78541-3 0  9996
2 63401  43.0050  85.8263 0002331 274.8848  85.1737 15.27615849 53412
STARLINK-33668          
1 63402U 25065D   26072.38354166  .00021369  00000+0  78336-3 0  9996
2 63402  43.0044  86.3195 0002754 248.3618 111.6941 15.27597738 53403
STARLINK-33676          
1 63403U 25065E   26072.42965904  .00021590  00000+0  79131-3 0  9990
2 63403  43.0032  85.8125 0001604 278.4201  81.6468 15.27599592 53414
STARLINK-33711          
1 63404U 25065F   26072.40781262  .00020386  00000+0  74793-3 0  9993
2 63404  43.0038  85.6516 0001856 275.0485  85.0155 15.27594897 53413
STARLINK-33708          
1 63405U 25065G   26072.43351078  .00021715  00000+0  79582-3 0  9993
2 63405  43.0027  85.8357 0001691 264.1283  95.9376 15.27600213 53414
STARLINK-33690          
1 63406U 25065H   26072.07623159  .00023009  00000+0  84255-3 0  9997
2 63406  43.0004  83.9958 0000866 211.7279 148.3521 15.27600003 53403
STARLINK-33694          
1 63407U 25065J   26072.42578886  .00035647  00000+0  12968-2 0  9995
2 63407  42.9951  85.7751 0001248  76.9719 283.1272 15.27627515 53418
STARLINK-33692          
1 63408U 25065K   26072.40362288  .00024822  00000+0  90751-3 0  9991
2 63408  43.0012  89.9248 0001519 256.8487 103.2195 15.27615415 53364
STARLINK-33693          
1 63409U 25065L   26072.44381030  .00020819  00000+0  76364-3 0  9998
2 63409  43.0011  85.9087 0001470 280.1405  79.9281 15.27592361 53412
STARLINK-33677          
1 63410U 25065M   26072.43608342  .00014783  00000+0  54547-3 0  9999
2 63410  43.0022  85.8491 0001418 265.1353  94.9337 15.27590690 53413
STARLINK-33647          
1 63411U 25065N   26072.41855758  .00019041  00000+0  69940-3 0  9998
2 63411  43.0010  93.5113 0001452 250.5391 109.5304 15.27592726 53325
STARLINK-33645          
1 63412U 25065P   26072.42787572  .00021149  00000+0  77540-3 0  9995
2 63412  43.0046  89.1815 0001781 277.5817  82.4832 15.27599515 53375
STARLINK-33670          
1 63413U 25065Q   26072.10529163  .00029881  00000+0  10904-2 0  9992
2 63413  43.0008  87.6335 0001199 243.7550 116.3179 15.27597008 53361
STARLINK-33644          
1 63414U 25065R   26072.41309055  .00021432  00000+0  78571-3 0  9992
2 63414  43.0070  86.4994 0002441 283.8864  76.1716 15.27594071 53405
STARLINK-33664          
1 63415U 25065S   26072.30915563  .00029693  00000+0  10834-2 0  9992
2 63415  43.0016  86.5753 0001787 259.6937 100.3713 15.27605336 53396
STARLINK-33649          
1 63416U 25065T   26072.42705548  .00022203  00000+0  81380-3 0  9991
2 63416  43.0051  85.7316 0002476 293.8752  66.1840 15.27584650 53411
